STARLINK-32892          
1 62893U 25024Q   25319.85054693  .00039855  00000+0  14489-2 0  9998
2 62893  43.0008 248.4467 0001506 266.7305  93.3374 15.27605272 44858
STARLINK-32909          
1 62894U 25024R   25319.85697595  .00010904  00000+0  40475-3 0  9992
2 62894  43.0018 248.4974 0001680 261.0965  98.9697 15.27614381 44856
STARLINK-32901          
1 62895U 25024S   25319.82869896  .00024966  00000+0  91343-3 0  9998
2 62895  42.9971 248.2751 0000417 283.7314  76.3491 15.27589823 44854
STARLINK-32890          
1 62896U 25024T   25319.86452221  .00041762  00000+0  15160-2 0  9998
2 62896  43.0044 247.6915 0001884 231.6237 128.4446 15.27635738 44865
STARLINK-32893          
1 62897U 25024U   25319.81070656  .00031825  00000+0  11606-2 0  9992
2 62897  43.0043 248.1500 0002506 274.0307  86.0258 15.27590529 44859
STARLINK-32902          
1 62898U 25024V   25319.80685272  .00031763  00000+0  11580-2 0  9990
2 62898  42.9999 248.1157 0000379 267.4404  92.6404 15.27601988 44854
STARLINK-32661          
1 62899U 25024W   25319.83255727  .00048782  00000+0  17688-2 0  9996
2 62899  42.9989 248.3051 0001256 269.1609  90.9099 15.27611039 44859
STARLINK-11552 [DTC]    
1 62907U 25027A   25319.70266288  .00301172  00000+0  22521-2 0  9996
2 62907  42.9997 314.8584 0001063 310.2743  49.8032 15.70992567 45263
STARLINK-11561 [DTC]    
1 62908U 25027B   25318.72237244  .00240986  00000+0  18156-2 0  9992
2 62908  42.9993 320.3925 0002318 294.5089  65.5537 15.70997107 45071
STARLINK-11567 [DTC]    
1 62909U 25027C   25319.71858292  .00302134  00000+0  22661-2 0  9995
2 62909  43.0001 314.9857 0002097 275.8634  84.1995 15.70918008 45224
STARLINK-11569 [DTC]    
1 62910U 25027D   25319.68673184  .00297158  00000+0  22288-2 0  9992
2 62910  42.9989 314.7268 0001122 298.8715  61.2040 15.70932913 45224
STARLINK-11537 [DTC]    
1 62911U 25027E   25319.69734985  .00340364  00000+0  25327-2 0  9996
2 62911  42.9986 314.8123 0001757 292.7171  67.3510 15.70992223 45269
STARLINK-11565 [DTC]    
1 62912U 25027F   25319.28399154  .00213725  00000+0  16225-2 0  9994
2 62912  42.9991 316.8555 0001550 269.6544  90.4146 15.70900564 45163
STARLINK-11564 [DTC]    
1 62913U 25027G   25319.70797610  .00332357  00000+0  24505-2 0  9994
2 62913  42.9979 314.8984 0002669 336.6602  23.4144 15.71234316 45223
STARLINK-11566 [DTC]    
1 62914U 25027H   25317.16994098  .00163008  00000+0  12545-2 0  9998
2 62914  43.0002 330.2706 0001163 253.9537 106.1203 15.70737883 44863
STARLINK-11555 [DTC]    
1 62915U 25027J   25319.26910434  .00220556  00000+0  16699-2 0  9990
2 62915  42.9994 317.6304 0001894 279.5973  80.4680 15.70942446 45197
