[{"OBJECT_NAME":"STARLINK-32892","OBJECT_ID":"2025-024Q","EPOCH":"2025-11-15T20:24:47.254752","MEAN_MOTION":15.27605272,"ECCENTRICITY":0.0001506,"INCLINATION":43.0008,"RA_OF_ASC_NODE":248.4467,"ARG_OF_PERICENTER":266.7305,"MEAN_ANOMALY":93.3374,"EPHEMERIS_TYPE":0,"CLASSIFICATION_TYPE":"U","NORAD_CAT_ID":62893,"ELEMENT_SET_NO":999,"REV_AT_EPOCH":4485,"BSTAR":0.0014489,"MEAN_MOTION_DOT":0.00039855,"MEAN_MOTION_DDOT":0},{"OBJECT_NAME":"STARLINK-32909","OBJECT_ID":"2025-024R","EPOCH":"2025-11-15T20:34:02.722080","MEAN_MOTION":15.27614381,"ECCENTRICITY":0.000168,"INCLINATION":43.0018,"RA_OF_ASC_NODE":248.4974,"ARG_OF_PERICENTER":261.0965,"MEAN_ANOMALY":98.9697,"EPHEMERIS_TYPE":0,"CLASSIFICATION_TYPE":"U","NORAD_CAT_ID":62894,"ELEMENT_SET_NO":999,"REV_AT_EPOCH":4485,"BSTAR":0.00040475,"MEAN_MOTION_DOT":0.00010904,"MEAN_MOTION_DDOT":0},{"OBJECT_NAME":"STARLINK-32901","OBJECT_ID":"2025-024S","EPOCH":"2025-11-15T19:53:19.590144","MEAN_MOTION":15.27589823,"ECCENTRICITY":4.17e-5,"INCLINATION":42.9971,"RA_OF_ASC_NODE":248.2751,"ARG_OF_PERICENTER":283.7314,"MEAN_ANOMALY":76.3491,"EPHEMERIS_TYPE":0,"CLASSIFICATION_TYPE":"U","NORAD_CAT_ID":62895,"ELEMENT_SET_NO":999,"REV_AT_EPOCH":4485,"BSTAR":0.00091343,"MEAN_MOTION_DOT":0.00024966,"MEAN_MOTION_DDOT":0},{"OBJECT_NAME":"STARLINK-32890","OBJECT_ID":"2025-024T","EPOCH":"2025-11-15T20:44:54.718944","MEAN_MOTION":15.27635738,"ECCENTRICITY":0.0001884,"INCLINATION":43.0044,"RA_OF_ASC_NODE":247.6915,"ARG_OF_PERICENTER":231.6237,"MEAN_ANOMALY":128.4446,"EPHEMERIS_TYPE":0,"CLASSIFICATION_TYPE":"U","NORAD_CAT_ID":62896,"ELEMENT_SET_NO":999,"REV_AT_EPOCH":4486,"BSTAR":0.001516,"MEAN_MOTION_DOT":0.00041762,"MEAN_MOTION_DDOT":0},{"OBJECT_NAME":"STARLINK-32893","OBJECT_ID":"2025-024U","EPOCH":"2025-11-15T19:27:25.046784","MEAN_MOTION":15.27590529,"ECCENTRICITY":0.0002506,"INCLINATION":43.0043,"RA_OF_ASC_NODE":248.15,"ARG_OF_PERICENTER":274.0307,"MEAN_ANOMALY":86.0258,"EPHEMERIS_TYPE":0,"CLASSIFICATION_TYPE":"U","NORAD_CAT_ID":62897,"ELEMENT_SET_NO":999,"REV_AT_EPOCH":4485,"BSTAR":0.0011606,"MEAN_MOTION_DOT":0.00031825,"MEAN_MOTION_DDOT":0},{"OBJECT_NAME":"STARLINK-32902","OBJECT_ID":"2025-024V","EPOCH":"2025-11-15T19:21:52.075008","MEAN_MOTION":15.27601988,"ECCENTRICITY":3.79e-5,"INCLINATION":42.9999,"RA_OF_ASC_NODE":248.1157,"ARG_OF_PERICENTER":267.4404,"MEAN_ANOMALY":92.6404,"EPHEMERIS_TYPE":0,"CLASSIFICATION_TYPE":"U","NORAD_CAT_ID":62898,"ELEMENT_SET_NO":999,"REV_AT_EPOCH":4485,"BSTAR":0.001158,"MEAN_MOTION_DOT":0.00031763,"MEAN_MOTION_DDOT":0},{"OBJECT_NAME":"STARLINK-32661","OBJECT_ID":"2025-024W","EPOCH":"2025-11-15T19:58:52.948128","MEAN_MOTION":15.27611039,"ECCENTRICITY":0.0001256,"INCLINATION":42.9989,"RA_OF_ASC_NODE":248.3051,"ARG_OF_PERICENTER":269.1609,"MEAN_ANOMALY":90.9099,"EPHEMERIS_TYPE":0,"CLASSIFICATION_TYPE":"U","NORAD_CAT_ID":62899,"ELEMENT_SET_NO":999,"REV_AT_EPOCH":4485,"BSTAR":0.0017688,"MEAN_MOTION_DOT":0.00048782,"MEAN_MOTION_DDOT":0},{"OBJECT_NAME":"STARLINK-11552 [DTC]","OBJECT_ID":"2025-027A","EPOCH":"2025-11-15T16:51:50.072832","MEAN_MOTION":15.70992567,"ECCENTRICITY":0.0001063,"INCLINATION":42.9997,"RA_OF_ASC_NODE":314.8584,"ARG_OF_PERICENTER":310.2743,"MEAN_ANOMALY":49.8032,"EPHEMERIS_TYPE":0,"CLASSIFICATION_TYPE":"U","NORAD_CAT_ID":62907,"ELEMENT_SET_NO":999,"REV_AT_EPOCH":4526,"BSTAR":0.0022521,"MEAN_MOTION_DOT":0.00301172,"MEAN_MOTION_DDOT":0},{"OBJECT_NAME":"STARLINK-11561 [DTC]","OBJECT_ID":"2025-027B","EPOCH":"2025-11-14T17:20:12.978816","MEAN_MOTION":15.70997107,"ECCENTRICITY":0.0002318,"INCLINATION":42.9993,"RA_OF_ASC_NODE":320.3925,"ARG_OF_PERICENTER":294.5089,"MEAN_ANOMALY":65.5537,"EPHEMERIS_TYPE":0,"CLASSIFICATION_TYPE":"U","NORAD_CAT_ID":62908,"ELEMENT_SET_NO":999,"REV_AT_EPOCH":4507,"BSTAR":0.0018156,"MEAN_MOTION_DOT":0.00240986,"MEAN_MOTION_DDOT":0},{"OBJECT_NAME":"STARLINK-11567 [DTC]","OBJECT_ID":"2025-027C","EPOCH":"2025-11-15T17:14:45.564288","MEAN_MOTION":15.70918008,"ECCENTRICITY":0.0002097,"INCLINATION":43.0001,"RA_OF_ASC_NODE":314.9857,"ARG_OF_PERICENTER":275.8634,"MEAN_ANOMALY":84.1995,"EPHEMERIS_TYPE":0,"CLASSIFICATION_TYPE":"U","NORAD_CAT_ID":62909,"ELEMENT_SET_NO":999,"REV_AT_EPOCH":4522,"BSTAR":0.0022661,"MEAN_MOTION_DOT":0.00302134,"MEAN_MOTION_DDOT":0},{"OBJECT_NAME":"STARLINK-11569 [DTC]","OBJECT_ID":"2025-027D","EPOCH":"2025-11-15T16:28:53.630976","MEAN_MOTION":15.70932913,"ECCENTRICITY":0.0001122,"INCLINATION":42.9989,"RA_OF_ASC_NODE":314.7268,"ARG_OF_PERICENTER":298.8715,"MEAN_ANOMALY":61.204,"EPHEMERIS_TYPE":0,"CLASSIFICATION_TYPE":"U","NORAD_CAT_ID":62910,"ELEMENT_SET_NO":999,"REV_AT_EPOCH":4522,"BSTAR":0.0022288,"MEAN_MOTION_DOT":0.00297158,"MEAN_MOTION_DDOT":0},{"OBJECT_NAME":"STARLINK-11537 [DTC]","OBJECT_ID":"2025-027E","EPOCH":"2025-11-15T16:44:11.027040","MEAN_MOTION":15.70992223,"ECCENTRICITY":0.0001757,"INCLINATION":42.9986,"RA_OF_ASC_NODE":314.8123,"ARG_OF_PERICENTER":292.7171,"MEAN_ANOMALY":67.351,"EPHEMERIS_TYPE":0,"CLASSIFICATION_TYPE":"U","NORAD_CAT_ID":62911,"ELEMENT_SET_NO":999,"REV_AT_EPOCH":4526,"BSTAR":0.0025327,"MEAN_MOTION_DOT":0.00340364,"MEAN_MOTION_DDOT":0},{"OBJECT_NAME":"STARLINK-11565 [DTC]","OBJECT_ID":"2025-027F","EPOCH":"2025-11-15T06:48:56.869056","MEAN_MOTION":15.70900564,"ECCENTRICITY":0.000155,"INCLINATION":42.9991,"RA_OF_ASC_NODE":316.8555,"ARG_OF_PERICENTER":269.6544,"MEAN_ANOMALY":90.4146,"EPHEMERIS_TYPE":0,"CLASSIFICATION_TYPE":"U","NORAD_CAT_ID":62912,"ELEMENT_SET_NO":999,"REV_AT_EPOCH":4516,"BSTAR":0.0016225,"MEAN_MOTION_DOT":0.00213725,"MEAN_MOTION_DDOT":0},{"OBJECT_NAME":"STARLINK-11564 [DTC]","OBJECT_ID":"2025-027G","EPOCH":"2025-11-15T16:59:29.135040","MEAN_MOTION":15.71234316,"ECCENTRICITY":0.0002669,"INCLINATION":42.9979,"RA_OF_ASC_NODE":314.8984,"ARG_OF_PERICENTER":336.6602,"MEAN_ANOMALY":23.4144,"EPHEMERIS_TYPE":0,"CLASSIFICATION_TYPE":"U","NORAD_CAT_ID":62913,"ELEMENT_SET_NO":999,"REV_AT_EPOCH":4522,"BSTAR":0.0024505,"MEAN_MOTION_DOT":0.00332357,"MEAN_MOTION_DDOT":0},{"OBJECT_NAME":"STARLINK-11566 [DTC]","OBJECT_ID":"2025-027H","EPOCH":"2025-11-13T04:04:42.900672","MEAN_MOTION":15.70737883,"ECCENTRICITY":0.00011631,"INCLINATION":43.0002,"RA_OF_ASC_NODE":330.2706,"ARG_OF_PERICENTER":253.9537,"MEAN_ANOMALY":106.1203,"EPHEMERIS_TYPE":0,"CLASSIFICATION_TYPE":"U","NORAD_CAT_ID":62914,"ELEMENT_SET_NO":999,"REV_AT_EPOCH":4486,"BSTAR":0.0012544577,"MEAN_MOTION_DOT":0.00163008,"MEAN_MOTION_DDOT":0},{"OBJECT_NAME":"STARLINK-11555 [DTC]","OBJECT_ID":"2025-027J","EPOCH":"2025-11-15T06:27:30.614976","MEAN_MOTION":15.70942446,"ECCENTRICITY":0.0001894,"INCLINATION":42.9994,"RA_OF_ASC_NODE":317.6304,"ARG_OF_PERICENTER":279.5973,"MEAN_ANOMALY":80.468,"EPHEMERIS_TYPE":0,"CLASSIFICATION_TYPE":"U","NORAD_CAT_ID":62915,"ELEMENT_SET_NO":999,"REV_AT_EPOCH":4519,"BSTAR":0.0016699,"MEAN_MOTION_DOT":0.00220556,"MEAN_MOTION_DDOT":0}]
